QIANFAN-9               
1 60387U 24140J   25272.84210907  .00000099  00000+0  13409-3 0  9991
2 60387  88.9770 306.9960 0017912  56.3348 303.9509 13.50972076 57356
QIANFAN-10              
1 60388U 24140K   25272.84623023  .00000084  00000+0  11069-3 0  9993
2 60388  88.9778 306.3358 0015726  36.1197 324.1013 13.50969182 57482
QIANFAN-11              
1 60389U 24140L   25272.88322225  .00000078  00000+0  10269-3 0  9992
2 60389  88.9705 306.9741 0015941  56.5912 303.6761 13.50969727 57145
QIANFAN-12              
1 60390U 24140M   25272.82968043  .00000100  00000+0  13558-3 0  9992
2 60390  88.9749 306.9907 0014953  64.3846 295.8849 13.50969828 57268
QIANFAN-13              
1 60391U 24140N   25272.87496213  .00000089  00000+0  11913-3 0  9992
2 60391  88.9761 307.0769 0014822  66.6742 293.5967 13.50969928 57296
QIANFAN-14              
1 60392U 24140P   25272.82550729  .00000093  00000+0  12481-3 0  9997
2 60392  88.9740 306.9954 0018496  65.7502 294.5579 13.50970672 57291
QIANFAN-15              
1 60393U 24140Q   25272.83376601  .00000103  00000+0  14089-3 0  9992
2 60393  88.9763 306.9335 0014001  54.8534 305.3927 13.50974274 57281
QIANFAN-16              
1 60394U 24140R   25272.82153262  .00000082  00000+0  10778-3 0  9995
2 60394  88.9766 307.0527 0016505  69.6941 290.5982 13.50969700 57191
